{
    "links": {
        "self": "http://www.neowsapp.com/rest/v1/neo/3624754?api_key=iIulBulltgU6a56xZRHN4H3l9WmuAYTsLGpBGhQ2"
    },
    "id": "3624754",
    "neo_reference_id": "3624754",
    "name": "(2013 BR18)",
    "designation": "2013 BR18",
    "nasa_jpl_url": "http://ssd.jpl.nasa.gov/sbdb.cgi?sstr=3624754",
    "absolute_magnitude_h": 26.1,
    "estimated_diameter": {
        "kilometers": {
            "estimated_diameter_min": 0.0160160338,
            "estimated_diameter_max": 0.0358129403
        },
        "meters": {
            "estimated_diameter_min": 16.0160337979,
            "estimated_diameter_max": 35.8129403019
        },
        "miles": {
            "estimated_diameter_min": 0.0099518989,
            "estimated_diameter_max": 0.0222531225
        },
        "feet": {
            "estimated_diameter_min": 52.5460443254,
            "estimated_diameter_max": 117.4965270602
        }
    },
    "is_potentially_hazardous_asteroid": false,
    "close_approach_data": [
        {
            "close_approach_date": "2013-01-27",
            "close_approach_date_full": "2013-Jan-27 22:37",
            "epoch_date_close_approach": 1359326220000,
            "relative_velocity": {
                "kilometers_per_second": "6.8490458142",
                "kilometers_per_hour": "24656.5649309616",
                "miles_per_hour": "15320.6305816855"
            },
            "miss_distance": {
                "astronomical": "0.0616291104",
                "lunar": "23.9737239456",
                "kilometers": "9219583.645834848",
                "miles": "5728783.6302949824"
            },
            "orbiting_body": "Earth"
        }
    ],
    "orbital_data": {
        "orbit_id": "4",
        "orbit_determination_date": "2017-04-06 08:47:04",
        "first_observation_date": "2013-01-18",
        "last_observation_date": "2013-01-19",
        "data_arc_in_days": 1,
        "observations_used": 12,
        "orbit_uncertainty": "9",
        "minimum_orbit_intersection": ".0524502",
        "jupiter_tisserand_invariant": "4.250",
        "epoch_osculation": "2456311.5",
        "eccentricity": ".3677686619465071",
        "semi_major_axis": "1.614880505361948",
        "inclination": "7.373848139814",
        "ascending_node_longitude": "120.4135571553083",
        "orbital_period": "749.5645082474301",
        "perihelion_distance": "1.020978062701485",
        "perihelion_argument": "26.95253214050649",
        "aphelion_distance": "2.20878294802241",
        "perihelion_time": "2456336.297721004999",
        "mean_anomaly": "348.0901784121657",
        "mean_motion": ".4802788766529545",
        "equinox": "J2000",
        "orbit_class": {
            "orbit_class_type": "AMO",
            "orbit_class_description": "Near-Earth asteroid orbits similar to that of 1221 Amor",
            "orbit_class_range": "1.017 AU < q (perihelion) < 1.3 AU"
        }
    },
    "is_sentry_object": false
}